MYSTER12
1 32711U 08012A   17122.13376070 -.00000020  00000-0  00000-0 0  9998
2 32711  55.1567 283.5083 0105358 211.7085 147.6302  2.00555259 66907